GLOBALSTAR M001         
1 25162U 98008A   25085.60368530 -.00000084  00000+0  95051-4 0  9998
2 25162  52.0023 213.5898 0002159  91.2179 280.9309 12.38210799233485
GLOBALSTAR M004         
1 25163U 98008B   25085.63211579 -.00000034  00000+0  38643-3 0  9990
2 25163  52.0008 306.0092 0003862 103.1311 290.6764 12.63391943251253
GLOBALSTAR M002         
1 25164U 98008C   25085.37806584 -.00000042  00000+0  68253-3 0  9997
2 25164  51.9998  87.8311 0001305 358.1343   1.9472 11.61508188174447
GLOBALSTAR M003         
1 25165U 98008D   25085.59708084 -.00000068  00000+0  23108-3 0  9996
2 25165  52.0021  37.2562 0008270 124.7138  45.9992 12.12075445223207
GLOBALSTAR M014         
1 25306U 98023A   25085.55907281 -.00000074  00000+0  62199-4 0  9997
2 25306  51.9877  12.3412 0000673 177.3868 353.4041 11.65478855181532
GLOBALSTAR M006         
1 25307U 98023B   25085.38519675 -.00000056  00000+0  40153-3 0  9990
2 25307  51.9941  62.1561 0003296 316.9588 199.9145 11.58173205207234
GLOBALSTAR M015         
1 25308U 98023C   25085.46976845 -.00000091  00000+0 -40016-3 0  9994
2 25308  51.9807 156.6297 0012164 287.4314  85.3819 11.48858395184570
GLOBALSTAR M008         
1 25309U 98023D   25085.36831469 -.00000037  00000+0  46320-3 0  9999
2 25309  51.9960  78.1649 0002643   6.6437 141.0807 12.36065234227607
